NORAD_CAT_ID,OBJECT_NAME,OBJECT_TYPE,EPOCH,MEAN_MOTION,ECCENTRICITY,INCLINATION,RA_OF_ASC_NODE,ARG_OF_PERICENTER,MEAN_ANOMALY,BSTAR,MEAN_MOTION_DOT,MEAN_MOTION_DDOT,TLE_LINE0,TLE_LINE1,TLE_LINE2,SEMIMAJOR_AXIS,PERIOD,APOGEE,PERIGEE,DECAYED
54173.0,STARLINK-5242,PAYLOAD,2023-09-30 08:43:56,15.08841957,0.0001298,53.2176,45.0164,82.7642,277.3498,9.4973e-05,1.224e-05,0.0,0 STARLINK-5242,1 54173U 22141S   23273.36384780  .00001224  00000-0  94973-4 0  9991,2 54173  53.2176  45.0164 0001298  82.7642 277.3498 15.08841957 51302,6917.874,95.437,540.637,538.841,0.0
54173.0,STARLINK-5242,PAYLOAD,2023-10-01 13:20:52,15.08851574,0.0001223,53.2179,39.6631,92.1327,267.9805,0.00022709,3.329e-05,0.0,0 STARLINK-5242,1 54173U 22141S   23274.55616313  .00003329  00000-0  22709-3 0  9998,2 54173  53.2179  39.6631 0001223  92.1327 267.9805 15.08851574 51488,6917.845,95.437,540.556,538.864,0.0
54173.0,STARLINK-5242,PAYLOAD,2023-10-01 14:56:15,15.08853942,0.0001424,53.2175,39.3649,87.2514,272.8641,0.00026948,4.005e-05,0.0,0 STARLINK-5242,1 54173U 22141S   23274.62240143  .00004005  00000-0  26948-3 0  9991,2 54173  53.2175  39.3649 0001424  87.2514 272.8641 15.08853942 51491,6917.838,95.437,540.688,538.718,0.0
54173.0,STARLINK-5242,PAYLOAD,2023-10-02 08:25:30,15.08836971,0.0001283,53.2167,36.0948,79.9956,280.1181,0.00010727,1.42e-05,0.0,0 STARLINK-5242,1 54173U 22141S   23275.35105130  .00001420  00000-0  10727-3 0  9994,2 54173  53.2167  36.0948 0001283  79.9956 280.1181 15.08836971 51606,6917.89,95.438,540.642,538.867,0.0
54173.0,STARLINK-5242,PAYLOAD,2023-10-02 14:47:03,15.0883703,0.0001227,53.2176,34.9053,91.6861,268.4272,9.5306e-05,1.229e-05,0.0,0 STARLINK-5242,1 54173U 22141S   23275.61601140  .00001229  00000-0  95306-4 0  9999,2 54173  53.2176  34.9053 0001227  91.6861 268.4272 15.08837030 51645,6917.889,95.438,540.603,538.906,0.0
54173.0,STARLINK-5242,PAYLOAD,2023-10-03 13:02:27,15.08842567,0.0001459,53.2178,30.7425,92.9735,267.1424,0.00019967,2.891e-05,0.0,0 STARLINK-5242,1 54173U 22141S   23276.54337327  .00002891  00000-0  19967-3 0  9999,2 54173  53.2178  30.7425 0001459  92.9735 267.1424 15.08842567 51786,6917.873,95.437,540.747,538.728,0.0
54173.0,STARLINK-5242,PAYLOAD,2023-10-03 14:37:50,15.08847771,0.0001433,53.2185,30.4461,82.966,277.1495,0.00030457,4.564e-05,0.0,0 STARLINK-5242,1 54173U 22141S   23276.60961071  .00004564  00000-0  30457-3 0  9991,2 54173  53.2185  30.4461 0001433  82.9660 277.1495 15.08847771 51791,6917.857,95.437,540.713,538.73,0.0
54173.0,STARLINK-5242,PAYLOAD,2023-10-04 12:53:14,15.08851155,0.0001521,53.2187,26.2832,99.2422,260.8742,0.00031887,4.792e-05,0.0,0 STARLINK-5242,1 54173U 22141S   23277.53696934  .00004792  00000-0  31887-3 0  9998,2 54173  53.2187  26.2832 0001521  99.2422 260.8742 15.08851155 51934,6917.846,95.437,540.763,538.659,0.0
54173.0,STARLINK-5242,PAYLOAD,2023-10-05 00:00:56,15.08846011,0.0001408,53.2174,24.2022,93.4642,266.6511,0.00013591,1.876e-05,0.0,0 STARLINK-5242,1 54173U 22141S   23278.00064952  .00001876  00000-0  13591-3 0  9992,2 54173  53.2174  24.2022 0001408  93.4642 266.6511 15.08846011 52005,6917.862,95.437,540.701,538.753,0.0
54173.0,STARLINK-5242,PAYLOAD,2023-10-05 11:08:38,15.08835115,0.0001886,53.2194,22.1209,95.8993,264.2214,-9.5797e-05,-1.812e-05,0.0,0 STARLINK-5242,1 54173U 22141S   23278.46433712 -.00001812  00000-0 -95797-4 0  9997,2 54173  53.2194  22.1209 0001886  95.8993 264.2214 15.08835115 52070,6917.895,95.438,541.065,538.456,0.0
54173.0,STARLINK-5242,PAYLOAD,2023-10-05 14:19:24,15.08844532,0.000158,53.218,21.5253,86.9204,273.1969,6.2238e-05,7.03e-06,0.0,0 STARLINK-5242,1 54173U 22141S   23278.59681262  .00000703  00000-0  62238-4 0  9996,2 54173  53.2180  21.5253 0001580  86.9204 273.1969 15.08844532 52095,6917.867,95.437,540.825,538.639,0.0
54173.0,STARLINK-5242,PAYLOAD,2023-10-06 10:59:25,15.08838962,0.0001674,53.2192,17.6606,100.1002,260.0179,4.7138e-06,-2.13e-06,0.0,0 STARLINK-5242,1 54173U 22141S   23279.45793878 -.00000213  00000-0  47138-5 0  9999,2 54173  53.2192  17.6606 0001674 100.1002 260.0179 15.08838962 52228,6917.884,95.438,540.907,538.591,0.0
54173.0,STARLINK-5242,PAYLOAD,2023-10-06 12:34:48,15.08840936,0.0001527,53.219,17.3635,94.9048,265.2118,3.6132e-05,2.87e-06,0.0,0 STARLINK-5242,1 54173U 22141S   23279.52417787  .00000287  00000-0  36132-4 0  9990,2 54173  53.2190  17.3635 0001527  94.9048 265.2118 15.08840936 52237,6917.878,95.437,540.799,538.686,0.0
54173.0,STARLINK-5242,PAYLOAD,2023-10-06 14:10:11,15.08845981,0.000175,53.2188,17.0649,97.3515,262.7676,0.00011361,1.521e-05,0.0,0 STARLINK-5242,1 54173U 22141S   23279.59041595  .00001521  00000-0  11361-3 0  9995,2 54173  53.2188  17.0649 0001750  97.3515 262.7676 15.08845981 52247,6917.862,95.437,540.938,538.516,0.0
54173.0,STARLINK-5242,PAYLOAD,2023-10-07 14:00:58,15.08859005,0.0001748,53.2181,12.6039,94.0114,266.1078,0.00048784,7.488e-05,0.0,0 STARLINK-5242,1 54173U 22141S   23280.58401094  .00007488  00000-0  48784-3 0  9997,2 54173  53.2181  12.6039 0001748  94.0114 266.1078 15.08859005 52392,6917.822,95.436,540.897,538.478,0.0
54173.0,STARLINK-5242,PAYLOAD,2023-10-07 23:33:17,15.08845444,0.0001865,53.2186,10.8216,85.8676,274.2529,0.00019172,2.765e-05,0.0,0 STARLINK-5242,1 54173U 22141S   23280.98145684  .00002765  00000-0  19172-3 0  9993,2 54173  53.2186  10.8216 0001865  85.8676 274.2529 15.08845444 52455,6917.864,95.437,541.019,538.439,0.0
54173.0,STARLINK-5242,PAYLOAD,2023-10-08 10:41:00,15.08837596,0.0001907,53.2185,8.7389,90.7646,269.3565,-4.3874e-05,-9.86e-06,0.0,0 STARLINK-5242,1 54173U 22141S   23281.44513990 -.00000986  00000-0 -43874-4 0  9996,2 54173  53.2185   8.7389 0001907  90.7646 269.3565 15.08837596 52522,6917.888,95.438,541.072,538.433,0.0
54173.0,STARLINK-5242,PAYLOAD,2023-10-08 12:16:23,15.08839072,0.000171,53.2187,8.4417,100.2582,259.8603,2.1283e-06,-2.54e-06,0.0,0 STARLINK-5242,1 54173U 22141S   23281.51137838 -.00000254  00000-0  21283-5 0  9995,2 54173  53.2187   8.4417 0001710 100.2582 259.8603 15.08839072 52530,6917.883,95.438,540.931,538.565,0.0
54173.0,STARLINK-5242,PAYLOAD,2023-10-09 12:07:09,15.08851012,0.0001654,53.2192,3.9814,99.3504,260.7676,0.00024461,3.608e-05,0.0,0 STARLINK-5242,1 54173U 22141S   23282.50497504  .00003608  00000-0  24461-3 0  9998,2 54173  53.2192   3.9814 0001654  99.3504 260.7676 15.08851012 52681,6917.847,95.437,540.856,538.568,0.0
54173.0,STARLINK-5242,PAYLOAD,2023-10-09 15:17:55,15.08857758,0.000155,53.2191,3.3845,99.2899,260.8269,0.00037496,5.687e-05,0.0,0 STARLINK-5242,1 54173U 22141S   23282.63745176  .00005687  00000-0  37496-3 0  9994,2 54173  53.2191   3.3845 0001550  99.2899 260.8269 15.08857758 52704,6917.826,95.436,540.763,538.619,0.0
54173.0,STARLINK-5242,PAYLOAD,2023-10-10 10:22:33,15.08850868,0.0001621,53.2183,359.8182,94.6085,265.5092,0.00036134,5.469e-05,0.0,0 STARLINK-5242,1 54173U 22141S   23283.43233578  .00005469  00000-0  36134-3 0  9997,2 54173  53.2183 359.8182 0001621  94.6085 265.5092 15.08850868 52827,6917.847,95.437,540.834,538.591,0.0
54173.0,STARLINK-5242,PAYLOAD,2023-10-10 11:57:56,15.08856122,0.000153,53.2186,359.5217,81.5726,278.5439,0.00053536,8.246e-05,0.0,0 STARLINK-5242,1 54173U 22141S   23283.49857475  .00008246  00000-0  53536-3 0  9992,2 54173  53.2186 359.5217 0001530  81.5726 278.5439 15.08856122 52831,6917.831,95.437,540.755,538.638,0.0
54173.0,STARLINK-5242,PAYLOAD,2023-10-11 11:48:44,15.08841605,0.0001497,53.2191,355.0601,83.345,276.7712,0.0009362,0.00014644,0.0,0 STARLINK-5242,1 54173U 22141S   23284.49218443  .00014644  00000-0  93620-3 0  9996,2 54173  53.2191 355.0601 0001497  83.3450 276.7712 15.08841605 52981,6917.875,95.437,540.776,538.705,0.0
54173.0,STARLINK-5242,PAYLOAD,2023-10-11 13:24:07,15.08843997,0.0001481,53.2187,354.7624,81.82,278.296,0.0010267,0.00016091,0.0,0 STARLINK-5242,1 54173U 22141S   23284.55842437  .00016091  00000-0  10267-2 0  9992,2 54173  53.2187 354.7624 0001481  81.8200 278.2960 15.08843997 52995,6917.868,95.437,540.758,538.709,0.0
54173.0,STARLINK-5242,PAYLOAD,2023-10-12 05:17:59,15.08837397,0.0001527,53.2178,351.7897,94.171,265.9457,0.00055365,8.534e-05,0.0,0 STARLINK-5242,1 54173U 22141S   23285.22082749  .00008534  00000-0  55365-3 0  9991,2 54173  53.2178 351.7897 0001527  94.1710 265.9457 15.08837397 53091,6917.888,95.438,540.81,538.697,0.0
54173.0,STARLINK-5242,PAYLOAD,2023-10-12 11:39:31,15.08853521,0.0001571,53.2188,350.6026,99.4437,260.6732,0.0010443,0.00016377,0.0,0 STARLINK-5242,1 54173U 22141S   23285.48578502  .00016377  00000-0  10443-2 0  9997,2 54173  53.2188 350.6026 0001571  99.4437 260.6732 15.08853521 53137,6917.839,95.437,540.791,538.617,0.0
54173.0,STARLINK-5242,PAYLOAD,2023-10-13 11:30:19,15.08845861,0.0001605,53.218,346.1403,85.1761,274.9414,0.00041077,6.256e-05,0.0,0 STARLINK-5242,1 54173U 22141S   23286.47938712  .00006256  00000-0  41077-3 0  9993,2 54173  53.2180 346.1403 0001605  85.1761 274.9414 15.08845861 53287,6917.862,95.437,540.838,538.617,0.0
54173.0,STARLINK-5242,PAYLOAD,2023-10-13 21:02:37,15.08847874,0.0001617,53.2178,344.3563,86.6165,273.5012,0.00035302,5.336e-05,0.0,0 STARLINK-5242,1 54173U 22141S   23286.87682642  .00005336  00000-0  35302-3 0  9997,2 54173  53.2178 344.3563 0001617  86.6165 273.5012 15.08847874 53340,6917.856,95.437,540.84,538.603,0.0
54173.0,STARLINK-5242,PAYLOAD,2023-10-14 12:56:28,15.08863065,0.0001734,53.2175,341.3823,82.9899,277.129,0.00072399,0.0001126,0.0,0 STARLINK-5242,1 54173U 22141S   23287.53922008  .00011260  00000-0  72399-3 0  9994,2 54173  53.2175 341.3823 0001734  82.9899 277.1290 15.08863065 53445,6917.81,95.436,540.874,538.475,0.0
54173.0,STARLINK-5242,PAYLOAD,2023-10-15 09:36:30,15.08828751,0.0001654,53.2171,337.5166,99.0558,261.0621,3.4042e-05,2.54e-06,0.0,0 STARLINK-5242,1 54173U 22141S   23288.40035151  .00000254  00000-0  34042-4 0  9990,2 54173  53.2171 337.5166 0001654  99.0558 261.0621 15.08828751 53577,6917.915,95.438,540.924,538.636,0.0
